{"type": "FeatureCollection", "features": [ {"type": "Feature", "properties": {"norad_id": 66603, "name": "STARLINK-36048", "group": "last-30-days", "lat": 30.293923320463104, "lon": -74.47842759140562, "alt_km": 337.71644211809144, "timestamp": "2025-12-03T15:48:01.920577+00:00", "meta": {"OBJECT_NAME": "STARLINK-36048", "OBJECT_ID": "2025-270R", "EPOCH": "2025-12-03T06:00:02.999808", "MEAN_MOTION": 15.77564998, "ECCENTRICITY": 0.00015101, "INCLINATION": 42.999, "RA_OF_ASC_NODE": 249.179, "ARG_OF_PERICENTER": 264.0212, "MEAN_ANOMALY": 343.0755, "EPHEMERIS_TYPE": 0, "CLASSIFICATION_TYPE": "U", "NORAD_CAT_ID": 66603, "ELEMENT_SET_NO": 999, "REV_AT_EPOCH": 277, "BSTAR": -0.011138155, "MEAN_MOTION_DOT": -0.01693609, "MEAN_MOTION_DDOT": 0}, "tle": {"line1": "1 66603U 25270R   25337.25003472 -.01693609  00000+0 -11138-1 0  9990", "line2": "2 66603  42.9990 249.1790 0001510 264.0212 343.0755 15.77564998  2776"}}, "geometry": {"type": "Point", "coordinates": [-74.47842759140562, 30.293923320463104]}}, {"type": "Feature", "properties": {"norad_id": 66604, "name": "STARLINK-35977", "group": "last-30-days", "lat": 31.29719834607122, "lon": -72.5840753446853, "alt_km": 337.6263199424475, "timestamp": "2025-12-03T15:48:01.920586+00:00", "meta": {"OBJECT_NAME": "STARLINK-35977", "OBJECT_ID": "2025-270S", "EPOCH": "2025-12-03T06:00:02.999808", "MEAN_MOTION": 15.77575071, "ECCENTRICITY": 0.00016256, "INCLINATION": 42.9989, "RA_OF_ASC_NODE": 249.1744, "ARG_OF_PERICENTER": 264.0803, "MEAN_ANOMALY": 344.9167, "EPHEMERIS_TYPE": 0, "CLASSIFICATION_TYPE": "U", "NORAD_CAT_ID": 66604, "ELEMENT_SET_NO": 999, "REV_AT_EPOCH": 287, "BSTAR": -0.011158896, "MEAN_MOTION_DOT": -0.0169717, "MEAN_MOTION_DDOT": 0}, "tle": {"line1": "1 66604U 25270S   25337.25003472 -.01697170  00000+0 -11159-1 0  9991", "line2": "2 66604  42.9989 249.1744 0001625 264.0803 344.9167 15.77575071  2879"}}, "geometry": {"type": "Point", "coordinates": [-72.5840753446853, 31.29719834607122]}}, {"type": "Feature", "properties": {"norad_id": 66605, "name": "STARLINK-36052", "group": "last-30-days", "lat": 32.27583791836577, "lon": -70.64191962068004, "alt_km": 337.35905434779215, "timestamp": "2025-12-03T15:48:01.920594+00:00", "meta": {"OBJECT_NAME": "STARLINK-36052", "OBJECT_ID": "2025-270T", "EPOCH": "2025-12-03T06:00:02.999808", "MEAN_MOTION": 15.77583521, "ECCENTRICITY": 0.00016482, "INCLINATION": 42.999, "RA_OF_ASC_NODE": 249.1697, "ARG_OF_PERICENTER": 273.0819, "MEAN_ANOMALY": 337.83, "EPHEMERIS_TYPE": 0, "CLASSIFICATION_TYPE": "U", "NORAD_CAT_ID": 66605, "ELEMENT_SET_NO": 999, "REV_AT_EPOCH": 287, "BSTAR": -0.011252684, "MEAN_MOTION_DOT": -0.01710364, "MEAN_MOTION_DDOT": 0}, "tle": {"line1": "1 66605U 25270T   25337.25003472 -.01710364  00000+0 -11253-1 0  9998", "line2": "2 66605  42.9990 249.1697 0001648 273.0819 337.8300 15.77583521  2870"}}, "geometry": {"type": "Point", "coordinates": [-70.64191962068004, 32.27583791836577]}}, {"type": "Feature", "properties": {"norad_id": 66606, "name": "STARLINK-36063", "group": "last-30-days", "lat": 34.169024709787465, "lon": -66.56480880187328, "alt_km": 337.5205708501726, "timestamp": "2025-12-03T15:48:01.920603+00:00", "meta": {"OBJECT_NAME": "STARLINK-36063", "OBJECT_ID": "2025-270U", "EPOCH": "2025-12-03T06:00:02.999808", "MEAN_MOTION": 15.77523838, "ECCENTRICITY": 0.00016779, "INCLINATION": 42.9991, "RA_OF_ASC_NODE": 249.1594, "ARG_OF_PERICENTER": 261.9392, "MEAN_ANOMALY": 352.9777, "EPHEMERIS_TYPE": 0, "CLASSIFICATION_TYPE": "U", "NORAD_CAT_ID": 66606, "ELEMENT_SET_NO": 999, "REV_AT_EPOCH": 287, "BSTAR": -0.011372903, "MEAN_MOTION_DOT": -0.01722396, "MEAN_MOTION_DDOT": 0}, "tle": {"line1": "1 66606U 25270U   25337.25003472 -.01722396  00000+0 -11373-1 0  9990", "line2": "2 66606  42.9991 249.1594 0001677 261.9392 352.9777 15.77523838  2873"}}, "geometry": {"type": "Point", "coordinates": [-66.56480880187328, 34.169024709787465]}}, {"type": "Feature", "properties": {"norad_id": 66607, "name": "STARLINK-35993", "group": "last-30-days", "lat": 33.25303125862431, "lon": -68.59533217571443, "alt_km": 337.50463345008666, "timestamp": "2025-12-03T15:48:01.920613+00:00", "meta": {"OBJECT_NAME": "STARLINK-35993", "OBJECT_ID": "2025-270V", "EPOCH": "2025-12-03T06:00:02.999808", "MEAN_MOTION": 15.77527295, "ECCENTRICITY": 0.0001606, "INCLINATION": 42.9991, "RA_OF_ASC_NODE": 249.1647, "ARG_OF_PERICENTER": 267.4692, "MEAN_ANOMALY": 345.5172, "EPHEMERIS_TYPE": 0, "CLASSIFICATION_TYPE": "U", "NORAD_CAT_ID": 66607, "ELEMENT_SET_NO": 999, "REV_AT_EPOCH": 277, "BSTAR": -0.011369734, "MEAN_MOTION_DOT": -0.01722153, "MEAN_MOTION_DDOT": 0}, "tle": {"line1": "1 66607U 25270V   25337.25003472 -.01722153  00000+0 -11370-1 0  9999", "line2": "2 66607  42.9991 249.1647 0001606 267.4692 345.5172 15.77527295  2776"}}, "geometry": {"type": "Point", "coordinates": [-68.59533217571443, 33.25303125862431]}}, {"type": "Feature", "properties": {"norad_id": 66608, "name": "STARLINK-36036", "group": "last-30-days", "lat": 35.05206425305625, "lon": -64.48608974615078, "alt_km": 337.3033671558769, "timestamp": "2025-12-03T15:48:01.920622+00:00", "meta": {"OBJECT_NAME": "STARLINK-36036", "OBJECT_ID": "2025-270W", "EPOCH": "2025-12-03T06:00:02.999808", "MEAN_MOTION": 15.77525789, "ECCENTRICITY": 0.00015197, "INCLINATION": 42.9991, "RA_OF_ASC_NODE": 249.1551, "ARG_OF_PERICENTER": 264.0956, "MEAN_ANOMALY": 352.7543, "EPHEMERIS_TYPE": 0, "CLASSIFICATION_TYPE": "U", "NORAD_CAT_ID": 66608, "ELEMENT_SET_NO": 999, "REV_AT_EPOCH": 271, "BSTAR": -0.011466361, "MEAN_MOTION_DOT": -0.01734878, "MEAN_MOTION_DDOT": 0}, "tle": {"line1": "1 66608U 25270W   25337.25003472 -.01734878  00000+0 -11466-1 0  9993", "line2": "2 66608  42.9991 249.1551 0001519 264.0956 352.7543 15.77525789  2712"}}, "geometry": {"type": "Point", "coordinates": [-64.48608974615078, 35.05206425305625]}}, {"type": "Feature", "properties": {"norad_id": 66609, "name": "STARLINK-36034", "group": "last-30-days", "lat": 35.89664810322587, "lon": -62.36895500577822, "alt_km": 337.2102870871886, "timestamp": "2025-12-03T15:48:01.920632+00:00", "meta": {"OBJECT_NAME": "STARLINK-36034", "OBJECT_ID": "2025-270X", "EPOCH": "2025-12-03T06:00:02.999808", "MEAN_MOTION": 15.77525772, "ECCENTRICITY": 0.00015867, "INCLINATION": 42.9992, "RA_OF_ASC_NODE": 249.1503, "ARG_OF_PERICENTER": 266.6758, "MEAN_ANOMALY": 352.0979, "EPHEMERIS_TYPE": 0, "CLASSIFICATION_TYPE": "U", "NORAD_CAT_ID": 66609, "ELEMENT_SET_NO": 999, "REV_AT_EPOCH": 271, "BSTAR": -0.011502242, "MEAN_MOTION_DOT": -0.01739712, "MEAN_MOTION_DDOT": 0}, "tle": {"line1": "1 66609U 25270X   25337.25003472 -.01739712  00000+0 -11502-1 0  9997", "line2": "2 66609  42.9992 249.1503 0001586 266.6758 352.0979 15.77525772  2711"}}, "geometry": {"type": "Point", "coordinates": [-62.36895500577822, 35.89664810322587]}}, {"type": "Feature", "properties": {"norad_id": 66610, "name": "STARLINK-35680", "group": "last-30-days", "lat": 36.709633036119094, "lon": -60.1882657189578, "alt_km": 337.2203450373854, "timestamp": "2025-12-03T15:48:01.920641+00:00", "meta": {"OBJECT_NAME": "STARLINK-35680", "OBJECT_ID": "2025-270Y", "EPOCH": "2025-12-03T06:00:02.999808", "MEAN_MOTION": 15.77518896, "ECCENTRICITY": 0.00015631, "INCLINATION": 42.9989, "RA_OF_ASC_NODE": 249.1451, "ARG_OF_PERICENTER": 262.366, "MEAN_ANOMALY": 358.3728, "EPHEMERIS_TYPE": 0, "CLASSIFICATION_TYPE": "U", "NORAD_CAT_ID": 66610, "ELEMENT_SET_NO": 999, "REV_AT_EPOCH": 298, "BSTAR": -0.011658247, "MEAN_MOTION_DOT": -0.01759957, "MEAN_MOTION_DDOT": 0}, "tle": {"line1": "1 66610U 25270Y   25337.25003472 -.01759957  00000+0 -11658-1 0  9994", "line2": "2 66610  42.9989 249.1451 0001563 262.3660 358.3728 15.77518896  2980"}}, "geometry": {"type": "Point", "coordinates": [-60.1882657189578, 36.709633036119094]}}, {"type": "Feature", "properties": {"norad_id": 66611, "name": "STARLINK-35583", "group": "last-30-days", "lat": 37.47818006664761, "lon": -57.97378846846183, "alt_km": 336.9640545974562, "timestamp": "2025-12-03T15:48:01.920650+00:00", "meta": {"OBJECT_NAME": "STARLINK-35583", "OBJECT_ID": "2025-270Z", "EPOCH": "2025-12-03T06:00:02.999808", "MEAN_MOTION": 15.77506992, "ECCENTRICITY": 0.0001497, "INCLINATION": 42.999, "RA_OF_ASC_NODE": 249.1402, "ARG_OF_PERICENTER": 271.2927, "MEAN_ANOMALY": 351.3807, "EPHEMERIS_TYPE": 0, "CLASSIFICATION_TYPE": "U", "NORAD_CAT_ID": 66611, "ELEMENT_SET_NO": 999, "REV_AT_EPOCH": 298, "BSTAR": -0.011584013, "MEAN_MOTION_DOT": -0.01749214, "MEAN_MOTION_DDOT": 0}, "tle": {"line1": "1 66611U 25270Z   25337.25003472 -.01749214  00000+0 -11584-1 0  9998", "line2": "2 66611  42.9990 249.1402 0001497 271.2927 351.3807 15.77506992  2985"}}, "geometry": {"type": "Point", "coordinates": [-57.97378846846183, 37.47818006664761]}}, {"type": "Feature", "properties": {"norad_id": 66612, "name": "STARLINK-36039", "group": "last-30-days", "lat": 38.22530278348671, "lon": -55.64649699447457, "alt_km": 336.8937420895418, "timestamp": "2025-12-03T15:48:01.920660+00:00", "meta": {"OBJECT_NAME": "STARLINK-36039", "OBJECT_ID": "2025-270AA", "EPOCH": "2025-12-03T06:00:02.999808", "MEAN_MOTION": 15.77405293, "ECCENTRICITY": 0.00014941, "INCLINATION": 42.9991, "RA_OF_ASC_NODE": 249.1351, "ARG_OF_PERICENTER": 269.3029, "MEAN_ANOMALY": 355.4324, "EPHEMERIS_TYPE": 0, "CLASSIFICATION_TYPE": "U", "NORAD_CAT_ID": 66612, "ELEMENT_SET_NO": 999, "REV_AT_EPOCH": 287, "BSTAR": -0.010876812, "MEAN_MOTION_DOT": -0.01647754, "MEAN_MOTION_DDOT": 0}, "tle": {"line1": "1 66612U 25270AA  25337.25003472 -.01647754  00000+0 -10877-1 0  9999", "line2": "2 66612  42.9991 249.1351 0001494 269.3029 355.4324 15.77405293  2877"}}, "geometry": {"type": "Point", "coordinates": [-55.64649699447457, 38.22530278348671]}}]}